NORAD_CAT_ID,OBJECT_NAME,OBJECT_TYPE,EPOCH,MEAN_MOTION,ECCENTRICITY,INCLINATION,RA_OF_ASC_NODE,ARG_OF_PERICENTER,MEAN_ANOMALY,BSTAR,MEAN_MOTION_DOT,MEAN_MOTION_DDOT,TLE_LINE0,TLE_LINE1,TLE_LINE2,SEMIMAJOR_AXIS,PERIOD,APOGEE,PERIGEE,DECAYED
53731.0,STARLINK-4636,PAYLOAD,2024-07-05 02:46:57,15.08842127,0.0001142,53.2166,124.2224,87.5504,272.5619,4.8827e-05,4.89e-06,0.0,0 STARLINK-4636,1 53731U 22107AH  24187.11593942  .00000489  00000-0  48827-4 0  9991,2 53731  53.2166 124.2224 0001142  87.5504 272.5619 15.08842127101471,6917.874,95.437,540.529,538.949,0.0
53731.0,STARLINK-4636,PAYLOAD,2024-07-05 12:19:15,15.08852151,0.0001145,53.2175,122.4383,88.3617,271.7507,0.00014065,1.952e-05,0.0,0 STARLINK-4636,1 53731U 22107AH  24187.51336881  .00001952  00000-0  14065-3 0  9994,2 53731  53.2175 122.4383 0001145  88.3617 271.7507 15.08852151101536,6917.843,95.437,540.5,538.916,0.0
53731.0,STARLINK-4636,PAYLOAD,2024-07-06 02:37:45,15.08829295,0.0001135,53.2167,119.7648,81.5685,278.5436,1.9319e-05,2e-07,0.0,0 STARLINK-4636,1 53731U 22107AH  24188.10955043  .00000020  00000-0  19319-4 0  9990,2 53731  53.2167 119.7648 0001135  81.5685 278.5436 15.08829295101628,6917.913,95.438,540.563,538.993,0.0
53731.0,STARLINK-4636,PAYLOAD,2024-07-06 12:10:03,15.08842834,0.0001217,53.2182,117.9809,84.8782,275.2349,9.7262e-05,1.261e-05,0.0,0 STARLINK-4636,1 53731U 22107AH  24188.50698017  .00001261  00000-0  97262-4 0  9990,2 53731  53.2182 117.9809 0001217  84.8782 275.2349 15.08842834101686,6917.872,95.437,540.579,538.895,0.0
53731.0,STARLINK-4636,PAYLOAD,2024-07-06 20:07:00,15.08831267,0.0001183,53.2176,116.4942,90.948,269.1648,-8.8598e-05,-1.697e-05,0.0,0 STARLINK-4636,1 53731U 22107AH  24188.83819523 -.00001697  00000-0 -88598-4 0  9990,2 53731  53.2176 116.4942 0001183  90.9480 269.1648 15.08831267101734,6917.907,95.438,540.59,538.954,0.0
53731.0,STARLINK-4636,PAYLOAD,2024-07-07 04:03:55,15.08839599,0.0001323,53.2181,115.0081,94.393,265.7213,3.2494e-06,-2.36e-06,0.0,0 STARLINK-4636,1 53731U 22107AH  24189.16938892 -.00000236  00000-0  32494-5 0  9990,2 53731  53.2181 115.0081 0001323  94.3930 265.7213 15.08839599101784,6917.882,95.438,540.662,538.831,0.0
53731.0,STARLINK-4636,PAYLOAD,2024-07-08 11:51:37,15.08852599,0.0001321,53.2169,109.0601,86.4395,273.6749,0.0002623,3.89e-05,0.0,0 STARLINK-4636,1 53731U 22107AH  24190.49418115  .00003890  00000-0  26230-3 0  9996,2 53731  53.2169 109.0601 0001321  86.4395 273.6749 15.08852599101985,6917.842,95.437,540.621,538.793,0.0
53731.0,STARLINK-4636,PAYLOAD,2024-07-09 03:45:28,15.08846613,0.0001222,53.2153,106.0852,94.3733,265.7399,0.00020143,2.92e-05,0.0,0 STARLINK-4636,1 53731U 22107AH  24191.15658411  .00002920  00000-0  20143-3 0  9995,2 53731  53.2153 106.0852 0001222  94.3733 265.7399 15.08846613102082,6917.86,95.437,540.571,538.88,0.0
53731.0,STARLINK-4636,PAYLOAD,2024-07-09 11:42:24,15.0885432,0.0001201,53.2153,104.5982,97.6248,262.4881,0.00047565,7.293e-05,0.0,0 STARLINK-4636,1 53731U 22107AH  24191.48778099  .00007293  00000-0  47565-3 0  9991,2 53731  53.2153 104.5982 0001201  97.6248 262.4881 15.08854320102762,6917.837,95.437,540.532,538.871,0.0
53731.0,STARLINK-4636,PAYLOAD,2024-07-09 22:50:06,15.08832092,0.0001465,53.2156,102.5164,94.5708,265.5451,-2.0442e-05,-6.13e-06,0.0,0 STARLINK-4636,1 53731U 22107AH  24191.95146854 -.00000613  00000-0 -20442-4 0  9998,2 53731  53.2156 102.5164 0001465  94.5708 265.5451 15.08832092102831,6917.905,95.438,540.783,538.756,0.0
53731.0,STARLINK-4636,PAYLOAD,2024-07-10 00:25:30,15.08827995,0.0001176,53.2159,102.2191,96.2784,263.8343,-0.00013118,-2.374e-05,0.0,0 STARLINK-4636,1 53731U 22107AH  24192.01770927 -.00002374  00000-0 -13118-3 0  9997,2 53731  53.2159 102.2191 0001176  96.2784 263.8343 15.08827995102212,6917.917,95.438,540.596,538.969,0.0
53731.0,STARLINK-4636,PAYLOAD,2024-07-10 11:33:11,15.08844572,0.0001539,53.2169,100.1347,103.6201,256.4963,0.00032841,4.943e-05,0.0,0 STARLINK-4636,1 53731U 22107AH  24192.48138758  .00004943  00000-0  32841-3 0  9994,2 53731  53.2169 100.1347 0001539 103.6201 256.4963 15.08844572102286,6917.866,95.437,540.796,538.667,0.0
53731.0,STARLINK-4636,PAYLOAD,2024-07-10 22:40:54,15.08844436,0.0001608,53.2168,98.055,103.288,256.8291,0.000444,6.786e-05,0.0,0 STARLINK-4636,1 53731U 22107AH  24192.94507019  .00006786  00000-0  44400-3 0  9996,2 53731  53.2168  98.0550 0001608 103.2880 256.8291 15.08844436102986,6917.867,95.437,540.844,538.619,0.0
53731.0,STARLINK-4636,PAYLOAD,2024-07-11 03:27:03,15.08847683,0.0001579,53.2168,97.1632,101.7208,258.3962,0.0005593,8.626e-05,0.0,0 STARLINK-4636,1 53731U 22107AH  24193.14378974  .00008626  00000-0  55930-3 0  9990,2 53731  53.2168  97.1632 0001579 101.7208 258.3962 15.08847683103015,6917.857,95.437,540.814,538.63,0.0
53731.0,STARLINK-4636,PAYLOAD,2024-07-12 03:17:50,15.08842356,0.0001476,53.2168,92.7031,100.0452,260.0707,0.00017106,2.436e-05,0.0,0 STARLINK-4636,1 53731U 22107AH  24194.13739049  .00002436  00000-0  17106-3 0  9990,2 53731  53.2168  92.7031 0001476 100.0452 260.0707 15.08842356102533,6917.873,95.437,540.759,538.717,0.0
53731.0,STARLINK-4636,PAYLOAD,2024-07-12 22:22:28,15.088409,0.0001432,53.2165,89.1342,99.7033,260.4121,0.000102,1.336e-05,0.0,0 STARLINK-4636,1 53731U 22107AH  24194.93227107  .00001336  00000-0  10200-3 0  9991,2 53731  53.2165  89.1342 0001432  99.7033 260.4121 15.08840900103286,6917.878,95.437,540.733,538.752,0.0
53731.0,STARLINK-4636,PAYLOAD,2024-07-13 09:30:09,15.08852645,0.0001279,53.2165,87.0514,96.9138,263.1999,0.00020848,3.033e-05,0.0,0 STARLINK-4636,1 53731U 22107AH  24195.39594337  .00003033  00000-0  20848-3 0  9999,2 53731  53.2165  87.0514 0001279  96.9138 263.1999 15.08852645102728,6917.842,95.437,540.592,538.822,0.0
53731.0,STARLINK-4636,PAYLOAD,2024-07-13 20:37:52,15.08834118,0.0001441,53.2171,84.9726,94.4821,265.6336,3.8188e-06,-2.27e-06,0.0,0 STARLINK-4636,1 53731U 22107AH  24195.85963466 -.00000227  00000-0  38188-5 0  9994,2 53731  53.2171  84.9726 0001441  94.4821 265.6336 15.08834118102793,6917.898,95.438,540.76,538.766,0.0
53731.0,STARLINK-4636,PAYLOAD,2024-07-13 22:13:15,15.08835633,0.0001479,53.2172,84.6752,94.8681,265.248,2.5275e-05,1.14e-06,0.0,0 STARLINK-4636,1 53731U 22107AH  24195.92587410  .00000114  00000-0  25275-4 0  9999,2 53731  53.2172  84.6752 0001479  94.8681 265.2480 15.08835633103430,6917.894,95.438,540.782,538.736,0.0
53731.0,STARLINK-4636,PAYLOAD,2024-07-14 09:20:57,15.08845509,0.0001437,53.2178,82.5949,93.7687,266.347,0.00014825,2.073e-05,0.0,0 STARLINK-4636,1 53731U 22107AH  24196.38954912  .00002073  00000-0  14825-3 0  9999,2 53731  53.2178  82.5949 0001437  93.7687 266.3470 15.08845509102870,6917.864,95.437,540.723,538.734,0.0
53731.0,STARLINK-4636,PAYLOAD,2024-07-14 20:28:39,15.08839502,0.0001677,53.2172,80.5155,103.1284,256.9895,4.4695e-06,-2.17e-06,0.0,0 STARLINK-4636,1 53731U 22107AH  24196.85323334 -.00000217  00000-0  44695-5 0  9998,2 53731  53.2172  80.5155 0001677 103.1284 256.9895 15.08839502102946,6917.882,95.438,540.907,538.587,0.0
53731.0,STARLINK-4636,PAYLOAD,2024-07-14 22:04:02,15.08836058,0.0001626,53.2188,80.2186,106.8342,253.2828,2.5866e-06,-2.47e-06,0.0,0 STARLINK-4636,1 53731U 22107AH  24196.91947530 -.00000247  00000-0  25866-5 0  9997,2 53731  53.2188  80.2186 0001626 106.8342 253.2828 15.08836058103583,6917.892,95.438,540.882,538.633,0.0
53731.0,STARLINK-4636,PAYLOAD,2024-07-15 01:14:48,15.08848513,0.0001032,53.2157,79.6189,99.892,260.2189,0.00011463,1.537e-05,0.0,0 STARLINK-4636,1 53731U 22107AH  24197.05194738  .00001537  00000-0  11463-3 0  9995,2 53731  53.2157  79.6189 0001032  99.8920 260.2189 15.08848513102977,6917.854,95.437,540.433,539.005,0.0
53731.0,STARLINK-4636,PAYLOAD,2024-07-15 09:11:43,15.08858724,0.0001227,53.2158,78.1316,69.6259,290.4865,0.00024995,3.694e-05,0.0,0 STARLINK-4636,1 53731U 22107AH  24197.38314156  .00003694  00000-0  24995-3 0  9999,2 53731  53.2158  78.1316 0001227  69.6259 290.4865 15.08858724103028,6917.823,95.436,540.537,538.839,0.0
53731.0,STARLINK-4636,PAYLOAD,2024-07-15 20:19:26,15.08827549,0.0001722,53.2161,76.052,86.3725,273.7464,-0.00010589,-1.972e-05,0.0,0 STARLINK-4636,1 53731U 22107AH  24197.84683886 -.00001972  00000-0 -10589-3 0  9992,2 53731  53.2161  76.0520 0001722  86.3725 273.7464 15.08827549103097,6917.918,95.438,540.975,538.592,0.0
53731.0,STARLINK-4636,PAYLOAD,2024-07-15 21:54:50,15.08828887,0.000157,53.2175,75.755,84.2909,275.8262,-3.6343e-05,-8.66e-06,0.0,0 STARLINK-4636,1 53731U 22107AH  24197.91308061 -.00000866  00000-0 -36343-4 0  9997,2 53731  53.2175  75.7550 0001570  84.2909 275.8262 15.08828887103739,6917.914,95.438,540.865,538.693,0.0
53731.0,STARLINK-4636,PAYLOAD,2024-07-15 23:30:13,15.08830639,0.0001488,53.2168,75.4574,83.7851,276.331,-5.5313e-05,-1.168e-05,0.0,0 STARLINK-4636,1 53731U 22107AH  24197.97931797 -.00001168  00000-0 -55313-4 0  9995,2 53731  53.2168  75.4574 0001488  83.7851 276.3310 15.08830639103741,6917.909,95.438,540.803,538.745,0.0
53731.0,STARLINK-4636,PAYLOAD,2024-07-16 20:10:13,15.08853227,0.0001463,53.2172,71.5925,84.8889,275.227,0.00044865,6.862e-05,0.0,0 STARLINK-4636,1 53731U 22107AH  24198.84043250  .00006862  00000-0  44865-3 0  9993,2 53731  53.2172  71.5925 0001463  84.8889 275.2270 15.08853227103245,6917.84,95.437,540.717,538.693,0.0
53731.0,STARLINK-4636,PAYLOAD,2024-07-16 21:45:36,15.08853914,0.0001389,53.2165,71.2949,86.1381,273.977,0.00073914,0.00011499,0.0,0 STARLINK-4636,1 53731U 22107AH  24198.90667367  .00011499  00000-0  73914-3 0  9990,2 53731  53.2165  71.2949 0001389  86.1381 273.9770 15.08853914103882,6917.838,95.437,540.664,538.742,0.0
53731.0,STARLINK-4636,PAYLOAD,2024-07-17 08:53:17,15.08868312,0.00013,53.2158,69.2132,78.7703,281.3435,0.0011247,0.00017671,0.0,0 STARLINK-4636,1 53731U 22107AH  24199.37034678  .00017671  00000-0  11247-2 0  9993,2 53731  53.2158  69.2132 0001300  78.7703 281.3435 15.08868312103950,6917.794,95.436,540.558,538.76,0.0
